NORAD_CAT_ID,OBJECT_NAME,OBJECT_TYPE,EPOCH,MEAN_MOTION,ECCENTRICITY,INCLINATION,RA_OF_ASC_NODE,ARG_OF_PERICENTER,MEAN_ANOMALY,BSTAR,MEAN_MOTION_DOT,MEAN_MOTION_DDOT,TLE_LINE0,TLE_LINE1,TLE_LINE2,SEMIMAJOR_AXIS,PERIOD,APOGEE,PERIGEE,DECAYED
53773.0,STARLINK-4718,PAYLOAD,2022-12-11 19:48:56,15.0883565,0.0001354,53.2181,198.6005,90.5796,269.5351,0.00013553,1.869e-05,0.0,0 STARLINK-4718,1 53773U 22111A   22345.82565613  .00001869  00000-0  13553-3 0  9998,2 53773  53.2181 198.6005 0001354  90.5796 269.5351 15.08835650 15126,6917.894,95.438,540.695,538.822,0.0
53773.0,STARLINK-4718,PAYLOAD,2022-12-11 21:24:20,15.08833625,0.0001304,53.2177,198.3032,83.4283,276.6857,0.00011885,1.604e-05,0.0,0 STARLINK-4718,1 53773U 22111A   22345.89189852  .00001604  00000-0  11885-3 0  9995,2 53773  53.2177 198.3032 0001304  83.4283 276.6857 15.08833625 14034,6917.9,95.438,540.6669999999998,538.863,0.0
53773.0,STARLINK-4718,PAYLOAD,2022-12-12 13:18:11,15.08836451,0.0001334,53.2179,195.3274,79.9721,280.1422,7.9519e-05,9.78e-06,0.0,0 STARLINK-4718,1 53773U 22111A   22346.55429981  .00000978  00000-0  79519-4 0  9991,2 53773  53.2179 195.3274 0001334  79.9721 280.1422 15.08836451 15232,6917.891,95.438,540.679,538.8330000000002,0.0
53773.0,STARLINK-4718,PAYLOAD,2022-12-12 21:15:06,15.08848357,0.0001279,53.2174,193.8427,74.7547,285.3587,7.7995e-05,9.54e-06,0.0,0 STARLINK-4718,1 53773U 22111A   22346.88549145  .00000954  00000-0  77995-4 0  9992,2 53773  53.2174 193.8427 0001279  74.7547 285.3587 15.08848357 15289,6917.855,95.437,540.605,538.835,0.0
53773.0,STARLINK-4718,PAYLOAD,2022-12-13 00:25:52,15.08847414,0.0001243,53.2171,193.2485,70.9859,289.1268,6.2251e-05,7.03e-06,0.0,0 STARLINK-4718,1 53773U 22111A   22347.01797196  .00000703  00000-0  62251-4 0  9990,2 53773  53.2171 193.2485 0001243  70.9859 289.1268 15.08847414 14201,6917.858,95.437,540.5830000000002,538.863,0.0
53773.0,STARLINK-4718,PAYLOAD,2022-12-13 06:47:26,15.08836183,0.0001288,53.217,192.0591,81.2282,278.8856,-9.7839e-06,-4.44e-06,0.0,0 STARLINK-4718,1 53773U 22111A   22347.28294078 -.00000444  00000-0 -97839-5 0  9995,2 53773  53.2170 192.0591 0001288  81.2282 278.8856 15.08836183 14242,6917.892,95.438,540.648,538.866,0.0
53773.0,STARLINK-4718,PAYLOAD,2022-12-14 00:16:40,15.08837712,0.0001226,53.2171,188.7884,75.7522,284.3606,6.0952e-05,6.82e-06,0.0,0 STARLINK-4718,1 53773U 22111A   22348.01157830  .00000682  00000-0  60952-4 0  9998,2 53773  53.2171 188.7884 0001226  75.7522 284.3606 15.08837712 15455,6917.887,95.438,540.601,538.904,0.0
53773.0,STARLINK-4718,PAYLOAD,2022-12-14 19:21:17,15.08846217,0.0001149,53.2172,185.2199,70.8138,289.2978,4.1625e-05,3.75e-06,0.0,0 STARLINK-4718,1 53773U 22111A   22348.80645277  .00000375  00000-0  41625-4 0  9997,2 53773  53.2172 185.2199 0001149  70.8138 289.2978 15.08846217 15579,6917.861,95.437,540.521,538.932,0.0
53773.0,STARLINK-4718,PAYLOAD,2022-12-15 12:50:32,15.08841109,0.0001353,53.2174,181.9491,73.3427,286.7714,0.00012344,1.677e-05,0.0,0 STARLINK-4718,1 53773U 22111A   22349.53509309  .00001677  00000-0  12344-3 0  9994,2 53773  53.2174 181.9491 0001353  73.3427 286.7714 15.08841109 15682,6917.877,95.437,540.678,538.806,0.0
53773.0,STARLINK-4718,PAYLOAD,2022-12-15 19:12:04,15.08840911,0.000136,53.2174,180.7591,73.6256,286.4886,2.9316e-05,1.79e-06,0.0,0 STARLINK-4718,1 53773U 22111A   22349.80005590  .00000179  00000-0  29316-4 0  9991,2 53773  53.2174 180.7591 0001360  73.6256 286.4886 15.08840911 15723,6917.878000000002,95.437,540.683,538.802,0.0
53773.0,STARLINK-4718,PAYLOAD,2022-12-15 22:22:51,15.08841062,0.0001367,53.2174,180.1643,73.5281,286.5861,2.5111e-05,1.12e-06,0.0,0 STARLINK-4718,1 53773U 22111A   22349.93253552  .00000112  00000-0  25111-4 0  9994,2 53773  53.2174 180.1643 0001367  73.5281 286.5861 15.08841062 14641,6917.877,95.437,540.688,538.7959999999998,0.0
53773.0,STARLINK-4718,PAYLOAD,2022-12-16 12:41:19,15.08841465,0.0001379,53.2173,177.4881,73.3089,286.8054,2.3337e-05,8.4e-07,0.0,0 STARLINK-4718,1 53773U 22111A   22350.52869466  .00000084  00000-0  23337-4 0  9994,2 53773  53.2173 177.4881 0001379  73.3089 286.8054 15.08841465 15836,6917.876,95.437,540.695,538.7869999999998,0.0
53773.0,STARLINK-4718,PAYLOAD,2022-12-16 19:02:51,15.0884689,0.0001395999999999,53.2174,176.299,73.1828,286.9317,3.2552e-05,2.3e-06,0.0,0 STARLINK-4718,1 53773U 22111A   22350.79364987  .00000230  00000-0  32552-4 0  9993,2 53773  53.2174 176.2990 0001396  73.1828 286.9317 15.08846890 15877,6917.859,95.437,540.69,538.759,0.0
53773.0,STARLINK-4718,PAYLOAD,2022-12-16 22:13:37,15.08847355,0.0001409999999999,53.2172,175.704,74.0005,286.1142,3.7745e-05,3.13e-06,0.0,0 STARLINK-4718,1 53773U 22111A   22350.92612875  .00000313  00000-0  37745-4 0  9991,2 53773  53.2172 175.7040 0001410  74.0005 286.1142 15.08847355 14794,6917.858,95.437,540.698,538.747,0.0
53773.0,STARLINK-4718,PAYLOAD,2022-12-17 12:32:05,15.08848208,0.0001425,53.2171,173.0277,74.1896,285.9253,7.1592e-05,8.52e-06,0.0,0 STARLINK-4718,1 53773U 22111A   22351.52228472  .00000852  00000-0  71592-4 0  9990,2 53773  53.2171 173.0277 0001425  74.1896 285.9253 15.08848208 15981,6917.855,95.437,540.706,538.735,0.0
53773.0,STARLINK-4718,PAYLOAD,2022-12-17 18:53:38,15.08836242,0.0001392,53.2172,171.8382,73.2163,286.8982,3.078e-05,2.02e-06,0.0,0 STARLINK-4718,1 53773U 22111A   22351.78725310  .00000202  00000-0  30780-4 0  9994,2 53773  53.2172 171.8382 0001392  73.2163 286.8982 15.08836242 14922,6917.892,95.438,540.72,538.794,0.0
53773.0,STARLINK-4718,PAYLOAD,2022-12-18 12:22:53,15.08837458,0.0001328,53.2171,168.567,71.4471,288.6665,-2.3968e-05,-6.69e-06,0.0,0 STARLINK-4718,1 53773U 22111A   22352.51589620 -.00000669  00000-0 -23968-4 0  9997,2 53773  53.2171 168.5670 0001328  71.4471 288.6665 15.08837458 16138,6917.888000000001,95.438,540.672,538.8340000000002,0.0
53773.0,STARLINK-4718,PAYLOAD,2022-12-18 18:44:25,15.08839409,0.0001334,53.2172,167.3778,71.4591,288.6546,-3.7873e-06,-3.48e-06,0.0,0 STARLINK-4718,1 53773U 22111A   22352.78085420 -.00000348  00000-0 -37873-5 0  9990,2 53773  53.2172 167.3778 0001334  71.4591 288.6546 15.08839409 16175,6917.882,95.438,540.67,538.8240000000002,0.0
53773.0,STARLINK-4718,PAYLOAD,2022-12-18 21:55:12,15.0884014,0.0001356,53.2172,166.783,71.5153,288.5986,-1.584e-06,-3.13e-06,0.0,0 STARLINK-4718,1 53773U 22111A   22352.91333363 -.00000313  00000-0 -15840-5 0  9999,2 53773  53.2172 166.7830 0001356  71.5153 288.5986 15.08840140 15097,6917.88,95.438,540.683,538.807,0.0
53773.0,STARLINK-4718,PAYLOAD,2022-12-19 18:35:12,15.08842199,0.000135,53.2174,162.9178,71.7371,288.3768,0.00011584,1.556e-05,0.0,0 STARLINK-4718,1 53773U 22111A   22353.77444761  .00001556  00000-0  11584-3 0  9996,2 53773  53.2174 162.9178 0001350  71.7371 288.3768 15.08842199 16329,6917.874,95.437,540.673,538.805,0.0
53773.0,STARLINK-4718,PAYLOAD,2022-12-20 12:04:27,15.08839229,0.000147,53.218,159.64700000000005,78.3434,281.7723,5.283899999999999e-05,5.53e-06,0.0,0 STARLINK-4718,1 53773U 22111A   22354.50309139  .00000553  00000-0  52839-4 0  9992,2 53773  53.2180 159.6470 0001470  78.3434 281.7723 15.08839229 15338,6917.8830000000025,95.438,540.765,538.731,0.0
53773.0,STARLINK-4718,PAYLOAD,2022-12-21 03:58:18,15.08833718,0.0001242,53.2175,156.6733,71.0629,289.0497,-1.9253e-05,-5.94e-06,0.0,0 STARLINK-4718,1 53773U 22111A   22355.16549676 -.00000594  00000-0 -19253-4 0  9997,2 53773  53.2175 156.6733 0001242  71.0629 289.0497 15.08833718 15431,6917.9,95.438,540.624,538.905,0.0
53773.0,STARLINK-4718,PAYLOAD,2022-12-21 10:19:51,15.08829725,0.0001315,53.2177,155.4841,72.3256,287.788,-5.7392e-05,-1.201e-05,0.0,0 STARLINK-4718,1 53773U 22111A   22355.43046176 -.00001201  00000-0 -57392-4 0  9996,2 53773  53.2177 155.4841 0001315  72.3256 287.7880 15.08829725 16571,6917.9119999999975,95.438,540.687,538.867,0.0
53773.0,STARLINK-4718,PAYLOAD,2022-12-22 03:49:06,15.08835348,0.0001431999999999,53.2198,152.214,74.3852,285.7298,-6.5857e-05,-1.336e-05,0.0,0 STARLINK-4718,1 53773U 22111A   22356.15910229 -.00001336  00000-0 -65857-4 0  9999,2 53773  53.2198 152.2140 0001432  74.3852 285.7298 15.08835348 16686,6917.895,95.438,540.75,538.769,0.0
53773.0,STARLINK-4718,PAYLOAD,2022-12-22 16:32:11,15.08833107,0.0001431,53.2204,149.8356,78.56,281.5553,9.859e-06,-1.31e-06,0.0,0 STARLINK-4718,1 53773U 22111A   22356.68902346 -.00000131  00000-0  98590-5 0  9990,2 53773  53.2204 149.8356 0001431  78.5600 281.5553 15.08833107 15667,6917.901,95.438,540.756,538.7769999999998,0.0
53773.0,STARLINK-4718,PAYLOAD,2022-12-23 03:39:53,15.08842148,0.0001433,53.2205,147.7541,75.1607,284.9543,3.2735e-06,-2.36e-06,0.0,0 STARLINK-4718,1 53773U 22111A   22357.15269937 -.00000236  00000-0  32735-5 0  9990,2 53773  53.2205 147.7541 0001433  75.1607 284.9543 15.08842148 15732,6917.874,95.437,540.73,538.747,0.0
53773.0,STARLINK-4718,PAYLOAD,2022-12-23 19:33:44,15.08845285,0.0001258,53.2202,144.7793,77.1679,282.9454,0.00018266,2.621e-05,0.0,0 STARLINK-4718,1 53773U 22111A   22357.81509306  .00002621  00000-0  18266-3 0  9990,2 53773  53.2202 144.7793 0001258  77.1679 282.9454 15.08845285 16938,6917.864000000001,95.437,540.6,538.859,0.0
53773.0,STARLINK-4718,PAYLOAD,2022-12-24 09:52:12,15.08842916,0.0001221,53.2189,142.1038,80.197,279.916,0.00012504,1.703e-05,0.0,0 STARLINK-4718,1 53773U 22111A   22358.41125486  .00001703  00000-0  12504-3 0  9999,2 53773  53.2189 142.1038 0001221  80.1970 279.9160 15.08842916 15920,6917.871,95.437,540.581,538.8919999999998,0.0
53773.0,STARLINK-4718,PAYLOAD,2022-12-24 16:13:44,15.08843148,0.0001259,53.219,140.9152,75.9417,284.1715,0.00010611,1.401e-05,0.0,0 STARLINK-4718,1 53773U 22111A   22358.67621456  .00001401  00000-0  10611-3 0  9997,2 53773  53.2190 140.9152 0001259  75.9417 284.1715 15.08843148 17063,6917.871,95.437,540.607,538.865,0.0
